[{"spaceTrack":{"CCSDS_OMM_VERS":"2.0","COMMENT":"GENERATED VIA SPACE-TRACK.ORG API","CREATION_DATE":"2021-05-12T04:44:40","ORIGINATOR":"18 SPCS","OBJECT_NAME":"STARLINK-1762","OBJECT_ID":"2020-062T","CENTER_NAME":"EARTH","REF_FRAME":"TEME","TIME_SYSTEM":"UTC","MEAN_ELEMENT_THEORY":"SGP4","EPOCH":"2021-05-11T21:01:19.025760","MEAN_MOTION":15.06399968,"ECCENTRICITY":0.0001953,"INCLINATION":53.0574,"RA_OF_ASC_NODE":10.1995,"ARG_OF_PERICENTER":75.3314,"MEAN_ANOMALY":284.7892,"EPHEMERIS_TYPE":0,"CLASSIFICATION_TYPE":"U","NORAD_CAT_ID":46342,"ELEMENT_SET_NO":999,"REV_AT_EPOCH":3861,"BSTAR":-0.000069857,"MEAN_MOTION_DOT":-0.00001322,"MEAN_MOTION_DDOT":0,"SEMIMAJOR_AXIS":6925.349,"PERIOD":95.592,"APOAPSIS":548.566,"PERIAPSIS":545.861,"OBJECT_TYPE":"PAYLOAD","RCS_SIZE":"LARGE","COUNTRY_CODE":"US","LAUNCH_DATE":"2020-09-03","SITE":"AFETR","DECAY_DATE":null,"DECAYED":0,"FILE":3035157,"GP_ID":177105867,"TLE_LINE0":"0 STARLINK-1762","TLE_LINE1":"1 46342U 20062T   21131.87591465 -.00001322  00000-0 -69857-4 0  9991","TLE_LINE2":"2 46342  53.0574  10.1995 0001953  75.3314 284.7892 15.06399968 38615"},"version":"v1.0","launch":"5ef6a1e90059c33cee4a828a","longitude":48.17400112713651,"latitude":-15.285441211474273,"height_km":552.0046859976037,"velocity_kms":7.585749197756785,"id":"5f5a9c1e2fd30c00065e5ed8"},{"spaceTrack":{"CCSDS_OMM_VERS":"2.0","COMMENT":"GENERATED VIA SPACE-TRACK.ORG API","CREATION_DATE":"2021-05-12T06:46:10","ORIGINATOR":"18 SPCS","OBJECT_NAME":"STARLINK-1726","OBJECT_ID":"2020-062AP","CENTER_NAME":"EARTH","REF_FRAME":"TEME","TIME_SYSTEM":"UTC","MEAN_ELEMENT_THEORY":"SGP4","EPOCH":"2021-05-12T00:10:25.818528","MEAN_MOTION":15.06397765,"ECCENTRICITY":0.000205,"INCLINATION":53.0586,"RA_OF_ASC_NODE":324.6025,"ARG_OF_PERICENTER":98.0471,"MEAN_ANOMALY":262.075,"EPHEMERIS_TYPE":0,"CLASSIFICATION_TYPE":"U","NORAD_CAT_ID":46362,"ELEMENT_SET_NO":999,"REV_AT_EPOCH":3944,"BSTAR":0.000064713,"MEAN_MOTION_DOT":0.00000682,"MEAN_MOTION_DDOT":0,"SEMIMAJOR_AXIS":6925.355,"PERIOD":95.592,"APOAPSIS":548.64,"PERIAPSIS":545.801,"OBJECT_TYPE":"PAYLOAD","RCS_SIZE":"LARGE","COUNTRY_CODE":"US","LAUNCH_DATE":"2020-09-03","SITE":"AFETR","DECAY_DATE":null,"DECAYED":0,"FILE":3035224,"GP_ID":177107976,"TLE_LINE0":"0 STARLINK-1726","TLE_LINE1":"1 46362U 20062AP  21132.00724327  .00000682  00000-0  64713-4 0  9996","TLE_LINE2":"2 46362  53.0586 324.6025 0002050  98.0471 262.0750 15.06397765 39449"},"version":"v1.0","launch":"5ef6a1e90059c33cee4a828a","longitude":8.1814520702273,"latitude":-21.15048752474571,"height_km":553.5221263058866,"velocity_kms":7.584869567235386,"id":"5f5a9c1e2fd30c00065e5edc"},{"spaceTrack":{"CCSDS_OMM_VERS":"2.0","COMMENT":"GENERATED VIA SPACE-TRACK.ORG API","CREATION_DATE":"2021-05-12T14:46:11","ORIGINATOR":"18 SPCS","OBJECT_NAME":"STARLINK-1713","OBJECT_ID":"2020-062AM","CENTER_NAME":"EARTH","REF_FRAME":"TEME","TIME_SYSTEM":"UTC","MEAN_ELEMENT_THEORY":"SGP4","EPOCH":"2021-05-12T06:11:21.121440","MEAN_MOTION":15.06395459,"ECCENTRICITY":0.0001862,"INCLINATION":53.0636,"RA_OF_ASC_NODE":323.4551,"ARG_OF_PERICENTER":92.1214,"MEAN_ANOMALY":267.9988,"EPHEMERIS_TYPE":0,"CLASSIFICATION_TYPE":"U","NORAD_CAT_ID":46360,"ELEMENT_SET_NO":999,"REV_AT_EPOCH":3948,"BSTAR":0.000070356,"MEAN_MOTION_DOT":0.00000766,"MEAN_MOTION_DDOT":0,"SEMIMAJOR_AXIS":6925.362,"PERIOD":95.592,"APOAPSIS":548.517,"PERIAPSIS":545.938,"OBJECT_TYPE":"PAYLOAD","RCS_SIZE":"LARGE","COUNTRY_CODE":"US","LAUNCH_DATE":"2020-09-03","SITE":"AFETR","DECAY_DATE":null,"DECAYED":0,"FILE":3035494,"GP_ID":177113788,"TLE_LINE0":"0 STARLINK-1713","TLE_LINE1":"1 46360U 20062AM  21132.25788335  .00000766  00000-0  70356-4 0  9993","TLE_LINE2":"2 46360  53.0636 323.4551 0001862  92.1214 267.9988 15.06395459 39483"},"version":"v1.0","launch":"5ef6a1e90059c33cee4a828a","longitude":107.4566957029132,"latitude":-50.217639578757776,"height_km":565.8005075694027,"velocity_kms":7.577392452354061,"id":"5f5a9c1e2fd30c00065e5edb"},{"spaceTrack":{"CCSDS_OMM_VERS":"2.0","COMMENT":"GENERATED VIA SPACE-TRACK.ORG API","CREATION_DATE":"2021-05-12T14:46:11","ORIGINATOR":"18 SPCS","OBJECT_NAME":"STARLINK-1765","OBJECT_ID":"2020-062V","CENTER_NAME":"EARTH","REF_FRAME":"TEME","TIME_SYSTEM":"UTC","MEAN_ELEMENT_THEORY":"SGP4","EPOCH":"2021-05-12T10:04:13.734624","MEAN_MOTION":15.06402454,"ECCENTRICITY":0.0001974,"INCLINATION":53.0563,"RA_OF_ASC_NODE":347.7668,"ARG_OF_PERICENTER":88.2043,"MEAN_ANOMALY":271.9172,"EPHEMERIS_TYPE":0,"CLASSIFICATION_TYPE":"U","NORAD_CAT_ID":46344,"ELEMENT_SET_NO":999,"REV_AT_EPOCH":3913,"BSTAR":0.000055286,"MEAN_MOTION_DOT":0.00000542,"MEAN_MOTION_DDOT":0,"SEMIMAJOR_AXIS":6925.341,"PERIOD":95.592,"APOAPSIS":548.573,"PERIAPSIS":545.839,"OBJECT_TYPE":"PAYLOAD","RCS_SIZE":"LARGE","COUNTRY_CODE":"US","LAUNCH_DATE":"2020-09-03","SITE":"AFETR","DECAY_DATE":null,"DECAYED":0,"FILE":3035516,"GP_ID":177113417,"TLE_LINE0":"0 STARLINK-1765","TLE_LINE1":"1 46344U 20062V   21132.41960341  .00000542  00000-0  55286-4 0  9999","TLE_LINE2":"2 46344  53.0563 347.7668 0001974  88.2043 271.9172 15.06402454 39138"},"version":"v1.0","launch":"5ef6a1e90059c33cee4a828a","longitude":-20.185289024165538,"latitude":38.54570135544567,"height_km":549.4380635749048,"velocity_kms":7.592683892369027,"id":"5f5a9c1e2fd30c00065e5edd"},{"spaceTrack":{"CCSDS_OMM_VERS":"2.0","COMMENT":"GENERATED VIA SPACE-TRACK.ORG API","CREATION_DATE":"2021-05-12T14:46:11","ORIGINATOR":"18 SPCS","OBJECT_NAME":"STARLINK-1745","OBJECT_ID":"2020-062BE","CENTER_NAME":"EARTH","REF_FRAME":"TEME","TIME_SYSTEM":"UTC","MEAN_ELEMENT_THEORY":"SGP4","EPOCH":"2021-05-12T08:53:58.349472","MEAN_MOTION":15.18663793,"ECCENTRICITY":0.0002738,"INCLINATION":53.0549,"RA_OF_ASC_NODE":322.6468,"ARG_OF_PERICENTER":125.6192,"MEAN_ANOMALY":234.5058,"EPHEMERIS_TYPE":0,"CLASSIFICATION_TYPE":"U","NORAD_CAT_ID":46377,"ELEMENT_SET_NO":999,"REV_AT_EPOCH":3950,"BSTAR":0.016319,"MEAN_MOTION_DOT":0.00359552,"MEAN_MOTION_DDOT":0,"SEMIMAJOR_AXIS":6888.015,"PERIOD":94.82,"APOAPSIS":511.766,"PERIAPSIS":507.994,"OBJECT_TYPE":"PAYLOAD","RCS_SIZE":"LARGE","COUNTRY_CODE":"US","LAUNCH_DATE":"2020-09-03","SITE":"AFETR","DECAY_DATE":null,"DECAYED":0,"FILE":3035501,"GP_ID":177113397,"TLE_LINE0":"0 STARLINK-1745","TLE_LINE1":"1 46377U 20062BE  21132.37081423  .00359552  00000-0  16319-1 0  9994","TLE_LINE2":"2 46377  53.0549 322.6468 0002738 125.6192 234.5058 15.18663793 39505"},"version":"v1.0","launch":"5ef6a1e90059c33cee4a828a","longitude":-151.59468949742106,"latitude":39.079596319019046,"height_km":511.97362097112364,"velocity_kms":7.613066325005882,"id":"5f5a9c1e2fd30c00065e5ee0"},{"spaceTrack":{"CCSDS_OMM_VERS":"2.0","COMMENT":"GENERATED VIA SPACE-TRACK.ORG API","CREATION_DATE":"2021-05-12T04:44:40","ORIGINATOR":"18 SPCS","OBJECT_NAME":"STARLINK-1738","OBJECT_ID":"2020-062M","CENTER_NAME":"EARTH","REF_FRAME":"TEME","TIME_SYSTEM":"UTC","MEAN_ELEMENT_THEORY":"SGP4","EPOCH":"2021-05-11T22:02:21.534720","MEAN_MOTION":15.06402679,"ECCENTRICITY":0.0002183,"INCLINATION":53.0557,"RA_OF_ASC_NODE":350.0155,"ARG_OF_PERICENTER":87.84,"MEAN_ANOMALY":272.2839,"EPHEMERIS_TYPE":0,"CLASSIFICATION_TYPE":"U","NORAD_CAT_ID":46336,"ELEMENT_SET_NO":999,"REV_AT_EPOCH":3889,"BSTAR":0.000076229,"MEAN_MOTION_DOT":0.00000854,"MEAN_MOTION_DDOT":0,"SEMIMAJOR_AXIS":6925.34,"PERIOD":95.592,"APOAPSIS":548.717,"PERIAPSIS":545.694,"OBJECT_TYPE":"PAYLOAD","RCS_SIZE":"LARGE","COUNTRY_CODE":"US","LAUNCH_DATE":"2020-09-03","SITE":"AFETR","DECAY_DATE":null,"DECAYED":0,"FILE":3035157,"GP_ID":177104364,"TLE_LINE0":"0 STARLINK-1738","TLE_LINE1":"1 46336U 20062M   21131.91830480  .00000854  00000-0  76229-4 0  9990","TLE_LINE2":"2 46336  53.0557 350.0155 0002183  87.8400 272.2839 15.06402679 38890"},"version":"v1.0","launch":"5ef6a1e90059c33cee4a828a","longitude":176.62464337268705,"latitude":-24.31005297651987,"height_km":554.9805041041209,"velocity_kms":7.583771434512279,"id":"5f5a9c1e2fd30c00065e5ee3"},{"spaceTrack":{"CCSDS_OMM_VERS":"2.0","COMMENT":"GENERATED VIA SPACE-TRACK.ORG API","CREATION_DATE":"2021-05-12T04:44:40","ORIGINATOR":"18 SPCS","OBJECT_NAME":"STARLINK-1710","OBJECT_ID":"2020-062F","CENTER_NAME":"EARTH","REF_FRAME":"TEME","TIME_SYSTEM":"UTC","MEAN_ELEMENT_THEORY":"SGP4","EPOCH":"2021-05-11T20:05:35.837376","MEAN_MOTION":15.06405057,"ECCENTRICITY":0.0002136,"INCLINATION":53.0571,"RA_OF_ASC_NODE":350.3755,"ARG_OF_PERICENTER":85.0456,"MEAN_ANOMALY":275.0777,"EPHEMERIS_TYPE":0,"CLASSIFICATION_TYPE":"U","NORAD_CAT_ID":46330,"ELEMENT_SET_NO":999,"REV_AT_EPOCH":3889,"BSTAR":0.000071183,"MEAN_MOTION_DOT":0.00000779,"MEAN_MOTION_DDOT":0,"SEMIMAJOR_AXIS":6925.333,"PERIOD":95.592,"APOAPSIS":548.677,"PERIAPSIS":545.719,"OBJECT_TYPE":"PAYLOAD","RCS_SIZE":"LARGE","COUNTRY_CODE":"US","LAUNCH_DATE":"2020-09-03","SITE":"AFETR","DECAY_DATE":null,"DECAYED":0,"FILE":3035157,"GP_ID":177105365,"TLE_LINE0":"0 STARLINK-1710","TLE_LINE1":"1 46330U 20062F   21131.83722034  .00000779  00000-0  71183-4 0  9990","TLE_LINE2":"2 46330  53.0571 350.3755 0002136  85.0456 275.0777 15.06405057 38893"},"version":"v1.0","launch":"5ef6a1e90059c33cee4a828a","longitude":-128.7967166125424,"latitude":37.373121326053386,"height_km":549.0818613871288,"velocity_kms":7.592810255306816,"id":"5f5a9c1e2fd30c00065e5ee4"}]